start=new Date('2021-10-28T00:00:00.000Z').valueOf();
sats=[{"REV_AT_EPOCH":"4049","PERIAPSIS":"546.337","BSTAR":"-0.00008739400000","EPOCH":"2021-10-27T08:40:40.499040","OBJECT_TYPE":"PAYLOAD","GP_ID":"188273664","FILE":"3187107","TIME_SYSTEM":"UTC","EPHEMERIS_TYPE":"0","TLE_LINE2":"2 47591  53.0552 338.8211 0001270  83.5018 276.6116 15.06398956 40497","PERIOD":"95.592","OBJECT_ID":"2021-009AV","SEMIMAJOR_AXIS":"6925.352","ECCENTRICITY":"0.00012700","OBJECT_NAME":"STARLINK-1996","MEAN_MOTION":"15.06398956","ELEMENT_SET_NO":"999","MEAN_MOTION_DOT":"-0.00001583","INCLINATION":"53.0552","NORAD_CAT_ID":"47591","CENTER_NAME":"EARTH","RCS_SIZE":"LARGE","COUNTRY_CODE":"US","RA_OF_ASC_NODE":"338.8211","ARG_OF_PERICENTER":"83.5018","MEAN_ELEMENT_THEORY":"SGP4","LAUNCH_DATE":"2021-02-04","REF_FRAME":"TEME","CLASSIFICATION_TYPE":"U","DECAY_DATE":null,"MEAN_ANOMALY":"276.6116","MEAN_MOTION_DDOT":"0.0000000000000","SITE":"AFETR","APOAPSIS":"548.096","TLE_LINE1":"1 47591U 21009AV  21300.36157985 -.00001583  00000-0 -87394-4 0  9992"},{"APOAPSIS":"547.937","TLE_LINE1":"1 47592U 21009AW  21300.65829570 -.00000884  00000-0 -40454-4 0  9990","DECAY_DATE":null,"CLASSIFICATION_TYPE":"U","MEAN_ANOMALY":"269.2263","MEAN_MOTION_DDOT":"0.0000000000000","SITE":"AFETR","ARG_OF_PERICENTER":"90.8843","MEAN_ELEMENT_THEORY":"SGP4","LAUNCH_DATE":"2021-02-04","REF_FRAME":"TEME","CENTER_NAME":"EARTH","NORAD_CAT_ID":"47592","RCS_SIZE":"LARGE","RA_OF_ASC_NODE":"357.5105","COUNTRY_CODE":"US","OBJECT_NAME":"STARLINK-1997","ECCENTRICITY":"0.00010200","MEAN_MOTION":"15.06394484","MEAN_MOTION_DOT":"-0.00000884","ELEMENT_SET_NO":"999","INCLINATION":"53.0576","EPHEMERIS_TYPE":"0","TIME_SYSTEM":"UTC","TLE_LINE2":"2 47592  53.0576 357.5105 0001020  90.8843 269.2263 15.06394484 40857","PERIOD":"95.592","OBJECT_ID":"2021-009AW","SEMIMAJOR_AXIS":"6925.365","GP_ID":"188275773","FILE":"3187244","REV_AT_EPOCH":"4085","PERIAPSIS":"546.524","BSTAR":"-0.00004045400000","EPOCH":"2021-10-27T15:47:56.748480","OBJECT_TYPE":"PAYLOAD"},{"PERIAPSIS":"546.614","REV_AT_EPOCH":"4021","EPOCH":"2021-10-27T08:43:19.332480","OBJECT_TYPE":"PAYLOAD","BSTAR":"0.00008111600000","GP_ID":"188272662","FILE":"3187107","PERIOD":"95.592","TLE_LINE2":"2 47593  53.0548 358.8393 0000859  98.7648 261.3438 15.06401365 40213","SEMIMAJOR_AXIS":"6925.344","OBJECT_ID":"2021-009AX","EPHEMERIS_TYPE":"0","TIME_SYSTEM":"UTC","INCLINATION":"53.0548","ECCENTRICITY":"0.00008590","OBJECT_NAME":"STARLINK-1998","ELEMENT_SET_NO":"999","MEAN_MOTION_DOT":"0.00000927","MEAN_MOTION":"15.06401365","RCS_SIZE":"LARGE","COUNTRY_CODE":"US","RA_OF_ASC_NODE":"358.8393","NORAD_CAT_ID":"47593","CENTER_NAME":"EARTH","MEAN_ELEMENT_THEORY":"SGP4","REF_FRAME":"TEME","LAUNCH_DATE":"2021-02-04","ARG_OF_PERICENTER":"98.7648","SITE":"AFETR","MEAN_MOTION_DDOT":"0.0000000000000","MEAN_ANOMALY":"261.3438","DECAY_DATE":null,"CLASSIFICATION_TYPE":"U","APOAPSIS":"547.804","TLE_LINE1":"1 47593U 21009AX  21300.36341820  .00000927  00000-0  81116-4 0  9992"},{"INCLINATION":"53.0573","OBJECT_NAME":"STARLINK-1999","ECCENTRICITY":"0.00010730","ELEMENT_SET_NO":"999","MEAN_MOTION_DOT":"-0.00001434","MEAN_MOTION":"15.06402779","PERIOD":"95.592","TLE_LINE2":"2 47594  53.0573 358.9802 0001073  81.5399 278.5711 15.06402779 40203","SEMIMAJOR_AXIS":"6925.340","OBJECT_ID":"2021-009AY","EPHEMERIS_TYPE":"0","TIME_SYSTEM":"UTC","GP_ID":"188273414","FILE":"3187107","REV_AT_EPOCH":"4020","PERIAPSIS":"546.462","OBJECT_TYPE":"PAYLOAD","EPOCH":"2021-10-27T07:55:33.635424","BSTAR":"-0.00007739400000","APOAPSIS":"547.948","TLE_LINE1":"1 47594U 21009AY  21300.33025041 -.00001434  00000-0 -77394-4 0  9993","SITE":"AFETR","MEAN_MOTION_DDOT":"0.0000000000000","MEAN_ANOMALY":"278.5711","DECAY_DATE":null,"CLASSIFICATION_TYPE":"U","MEAN_ELEMENT_THEORY":"SGP4","REF_FRAME":"TEME","LAUNCH_DATE":"2021-02-04","ARG_OF_PERICENTER":"81.5399","RCS_SIZE":"LARGE","RA_OF_ASC_NODE":"358.9802","COUNTRY_CODE":"US","NORAD_CAT_ID":"47594","CENTER_NAME":"EARTH"},{"MEAN_MOTION_DOT":"0.00000510","ELEMENT_SET_NO":"999","MEAN_MOTION":"15.06396540","ECCENTRICITY":"0.00012210","OBJECT_NAME":"STARLINK-2000","INCLINATION":"53.0563","TIME_SYSTEM":"UTC","EPHEMERIS_TYPE":"0","SEMIMAJOR_AXIS":"6925.359","OBJECT_ID":"2021-009AZ","PERIOD":"95.592","TLE_LINE2":"2 47595  53.0563 358.7537 0001221  81.4923 278.6205 15.06396540 40211","FILE":"3187107","GP_ID":"188273165","EPOCH":"2021-10-27T09:09:51.761376","OBJECT_TYPE":"PAYLOAD","BSTAR":"0.00005312800000","PERIAPSIS":"546.379","REV_AT_EPOCH":"4021","TLE_LINE1":"1 47595U 21009AZ  21300.38184909  .00000510  00000-0  53128-4 0  9999","APOAPSIS":"548.070","MEAN_ANOMALY":"278.6205","CLASSIFICATION_TYPE":"U","DECAY_DATE":null,"SITE":"AFETR","MEAN_MOTION_DDOT":"0.0000000000000","ARG_OF_PERICENTER":"81.4923","REF_FRAME":"TEME","LAUNCH_DATE":"2021-02-04","MEAN_ELEMENT_THEORY":"SGP4","NORAD_CAT_ID":"47595","CENTER_NAME":"EARTH","COUNTRY_CODE":"US","RA_OF_ASC_NODE":"358.7537","RCS_SIZE":"LARGE"},{"TLE_LINE1":"1 47596U 21009BA  21300.51822786 -.00001906  00000-0 -10911-3 0  9991","APOAPSIS":"548.046","MEAN_ANOMALY":"267.0265","CLASSIFICATION_TYPE":"U","DECAY_DATE":null,"SITE":"AFETR","MEAN_MOTION_DDOT":"0.0000000000000","ARG_OF_PERICENTER":"93.0857","REF_FRAME":"TEME","LAUNCH_DATE":"2021-02-04","MEAN_ELEMENT_THEORY":"SGP4","CENTER_NAME":"EARTH","NORAD_CAT_ID":"47596","COUNTRY_CODE":"US","RA_OF_ASC_NODE":"358.1363","RCS_SIZE":"LARGE","MEAN_MOTION_DOT":"-0.00001906","ELEMENT_SET_NO":"999","MEAN_MOTION":"15.06390793","OBJECT_NAME":"STARLINK-2001","ECCENTRICITY":"0.00011610","INCLINATION":"53.0572","EPHEMERIS_TYPE":"0","TIME_SYSTEM":"UTC","SEMIMAJOR_AXIS":"6925.377","OBJECT_ID":"2021-009BA","PERIOD":"95.593","TLE_LINE2":"2 47596  53.0572 358.1363 0001161  93.0857 267.0265 15.06390793 40831","FILE":"3187586","GP_ID":"188283717","EPOCH":"2021-10-27T12:26:14.887104","OBJECT_TYPE":"PAYLOAD","BSTAR":"-0.00010911000000","PERIAPSIS":"546.438","REV_AT_EPOCH":"4083"},{"TLE_LINE1":"1 47597U 21009BB  21300.37816407  .00000522  00000-0  53953-4 0  9994","APOAPSIS":"547.991","MEAN_ANOMALY":"269.0131","DECAY_DATE":null,"CLASSIFICATION_TYPE":"U","SITE":"AFETR","MEAN_MOTION_DDOT":"0.0000000000000","ARG_OF_PERICENTER":"91.0987","REF_FRAME":"TEME","LAUNCH_DATE":"2021-02-04","MEAN_ELEMENT_THEORY":"SGP4","NORAD_CAT_ID":"47597","CENTER_NAME":"EARTH","COUNTRY_CODE":"US","RA_OF_ASC_NODE":"358.7676","RCS_SIZE":"LARGE","MEAN_MOTION_DOT":"0.00000522","ELEMENT_SET_NO":"999","MEAN_MOTION":"15.06399973","ECCENTRICITY":"0.00011230","OBJECT_NAME":"STARLINK-2002","INCLINATION":"53.0574","TIME_SYSTEM":"UTC","EPHEMERIS_TYPE":"0","SEMIMAJOR_AXIS":"6925.349","OBJECT_ID":"2021-009BB","PERIOD":"95.592","TLE_LINE2":"2 47597  53.0574 358.7676 0001123  91.0987 269.0131 15.06399973 40212","FILE":"3187107","GP_ID":"188272163","EPOCH":"2021-10-27T09:04:33.375648","OBJECT_TYPE":"PAYLOAD","BSTAR":"0.00005395300000","REV_AT_EPOCH":"4021","PERIAPSIS":"546.436"},{"INCLINATION":"53.0626","MEAN_MOTION_DOT":"-0.00000753","ELEMENT_SET_NO":"999","MEAN_MOTION":"15.06398710","ECCENTRICITY":"0.00012370","OBJECT_NAME":"STARLINK-2003","SEMIMAJOR_AXIS":"6925.353","OBJECT_ID":"2021-009BC","PERIOD":"95.592","TLE_LINE2":"2 47598  53.0626 327.7949 0001237  75.5692 284.5435 15.06398710 41281","EPHEMERIS_TYPE":"0","TIME_SYSTEM":"UTC","FILE":"3187586","GP_ID":"188283708","OBJECT_TYPE":"PAYLOAD","EPOCH":"2021-10-27T14:05:47.122944","BSTAR":"-0.00003168700000","REV_AT_EPOCH":"4128","PERIAPSIS":"546.361","TLE_LINE1":"1 47598U 21009BC  21300.58735096 -.00000753  00000-0 -31687-4 0  9990","APOAPSIS":"548.074","SITE":"AFETR","MEAN_MOTION_DDOT":"0.0000000000000","MEAN_ANOMALY":"284.5435","CLASSIFICATION_TYPE":"U","DECAY_DATE":null,"REF_FRAME":"TEME","LAUNCH_DATE":"2021-02-04","MEAN_ELEMENT_THEORY":"SGP4","ARG_OF_PERICENTER":"75.5692","RA_OF_ASC_NODE":"327.7949","COUNTRY_CODE":"US","RCS_SIZE":"LARGE","NORAD_CAT_ID":"47598","CENTER_NAME":"EARTH"},{"FILE":"3187107","GP_ID":"188273665","EPOCH":"2021-10-27T09:04:33.778272","OBJECT_TYPE":"PAYLOAD","BSTAR":"0.00007956700000","PERIAPSIS":"546.335","REV_AT_EPOCH":"4077","INCLINATION":"53.0569","MEAN_MOTION_DOT":"0.00000904","ELEMENT_SET_NO":"999","MEAN_MOTION":"15.06398039","OBJECT_NAME":"STARLINK-2004","ECCENTRICITY":"0.00012770","SEMIMAJOR_AXIS":"6925.355","OBJECT_ID":"2021-009BD","PERIOD":"95.592","TLE_LINE2":"2 47599  53.0569 318.7556 0001277  77.8567 282.2565 15.06398039 40778","TIME_SYSTEM":"UTC","EPHEMERIS_TYPE":"0","REF_FRAME":"TEME","LAUNCH_DATE":"2021-02-04","MEAN_ELEMENT_THEORY":"SGP4","ARG_OF_PERICENTER":"77.8567","COUNTRY_CODE":"US","RA_OF_ASC_NODE":"318.7556","RCS_SIZE":"LARGE","NORAD_CAT_ID":"47599","CENTER_NAME":"EARTH","TLE_LINE1":"1 47599U 21009BD  21300.37816873  .00000904  00000-0  79567-4 0  9996","APOAPSIS":"548.104","SITE":"AFETR","MEAN_MOTION_DDOT":"0.0000000000000","MEAN_ANOMALY":"282.2565","DECAY_DATE":null,"CLASSIFICATION_TYPE":"U"},{"BSTAR":"0.00003593400000","OBJECT_TYPE":"PAYLOAD","EPOCH":"2021-10-27T12:56:42.835488","REV_AT_EPOCH":"4141","PERIAPSIS":"542.419","FILE":"3187586","GP_ID":"188283716","OBJECT_ID":"2021-009BE","SEMIMAJOR_AXIS":"6925.343","TLE_LINE2":"2 47600  53.0601 318.0255 0006915 206.4974 153.5662 15.06401883 41415","PERIOD":"95.592","EPHEMERIS_TYPE":"0","TIME_SYSTEM":"UTC","INCLINATION":"53.0601","MEAN_MOTION":"15.06401883","ELEMENT_SET_NO":"999","MEAN_MOTION_DOT":"0.00000252","ECCENTRICITY":"0.00069150","OBJECT_NAME":"STARLINK-2005","COUNTRY_CODE":"US","RA_OF_ASC_NODE":"318.0255","RCS_SIZE":"LARGE","NORAD_CAT_ID":"47600","CENTER_NAME":"EARTH","LAUNCH_DATE":"2021-02-04","REF_FRAME":"TEME","MEAN_ELEMENT_THEORY":"SGP4","ARG_OF_PERICENTER":"206.4974","MEAN_MOTION_DDOT":"0.0000000000000","SITE":"AFETR","CLASSIFICATION_TYPE":"U","DECAY_DATE":null,"MEAN_ANOMALY":"153.5662","TLE_LINE1":"1 47600U 21009BE  21300.53938467  .00000252  00000-0  35934-4 0  9997","APOAPSIS":"551.997"}];
